IRIDIUM 155             
1 43573U 18061E   21083.84905334  .00000089  00000-0  24842-4 0  9999
2 43573  86.3961 135.1066 0002755  99.3968 260.7539 14.34219268139546
IRIDIUM 154             
1 43574U 18061F   21083.55095795  .00000087  00000-0  24081-4 0  9992
2 43574  86.3967 135.2739 0001989  95.7822 264.3600 14.34218221139556
IRIDIUM 163             
1 43575U 18061G   21083.88077253  .00000088  00000-0  24481-4 0  9993
2 43575  86.3963 135.1095 0002262  80.4916 279.6535 14.34218710139578
IRIDIUM 156             
1 43576U 18061H   21084.06471221  .00000093  00000-0  25978-4 0  9996
2 43576  86.3963 135.0376 0002553  89.0637 271.0851 14.34217513139586
IRIDIUM 164             
1 43577U 18061J   21083.83638439  .00000097  00000-0  27417-4 0  9991
2 43577  86.3965 135.1444 0002050  91.5825 268.5605 14.34217706139600
IRIDIUM 159             
1 43578U 18061K   21083.87443185  .00000092  00000-0  25937-4 0  9998
2 43578  86.3962 135.1053 0002093  94.5856 265.5578 14.34217583139573
IRIDIUM 180             
1 43922U 19002A   21084.22277079  .00000091  00000-0  25536-4 0  9998
2 43922  86.3935  71.7717 0001312  70.0347 290.0990 14.34218009115271
IRIDIUM 176             
1 43923U 19002B   21083.72272260  .00000145  00000-0  19124-4 0  9996
2 43923  86.6069  72.0125 0002245  90.8306 269.3168 14.72251885118169
IRIDIUM 168             
1 43924U 19002C   21083.86759652  .00000090  00000-0  25168-4 0  9991
2 43924  86.3938  71.9435 0001922  88.6077 271.5339 14.34216966115166
IRIDIUM 173             
1 43925U 19002D   21083.71537116  .00000095  00000-0  26903-4 0  9998
2 43925  86.3934  71.9738 0002004  86.4511 273.6913 14.34217691115123
IRIDIUM 169             
1 43926U 19002E   21084.11171276  .00000086  00000-0  21600-4 0  9994
2 43926  86.4175 103.4301 0006503 132.2952 227.8798 14.38609645115610
IRIDIUM 172             
1 43927U 19002F   21083.91832006  .00000086  00000-0  23537-4 0  9998
2 43927  86.3934  71.8909 0001903  85.7796 274.3617 14.34217090115164
IRIDIUM 175             
1 43928U 19002G   21083.71653735  .00000132  00000-0  17050-4 0  9992
2 43928  86.6054  71.8515 0002643  75.2516 284.8994 14.72252366118153
IRIDIUM 171             
1 43929U 19002H   21083.68999013  .00000092  00000-0  25884-4 0  9990
2 43929  86.3943  72.0805 0001933  89.4667 270.6750 14.34218009115129
IRIDIUM 170             
1 43930U 19002J   21083.45700540  .00000143  00000-0  18685-4 0  9990
2 43930  86.6069  72.1301 0002302  84.1908 275.9572 14.72252023118136
IRIDIUM 167             
1 43931U 19002K   21083.89294368  .00000089  00000-0  24673-4 0  9998
2 43931  86.3934  71.9071 0001433  78.9511 281.1846 14.34218869115151
